0 THOR 1 (MARCOPOLO 2)
1 20762U 90074A   13280.78356647 -.00000175  00000-0  10000-3 0  9973
2 20762 010.6379 047.1191 0005749 099.0486 261.0278 00.99208926 84530
0 THOR 1 (MARCOPOLO 2)
1 20762U 90074A   13282.79942151 -.00000124  00000-0  10000-3 0  9982
2 20762 010.6418 047.0944 0005383 102.7036 257.3641 00.99208003 84556
0 THOR 1 (MARCOPOLO 2)
1 20762U 90074A   13287.83913989 -.00000001  00000-0  10000-3 0    07
2 20762 010.6516 047.0347 0006236 100.9240 259.1450 00.99206546 84601
0 THOR 1 (MARCOPOLO 2)
1 20762U 90074A   13289.85502182  .00000037  00000-0  10000-3 0    19
2 20762 010.6551 047.0113 0006702 100.0694 259.9898 00.99206385 84620
0 THOR 1 (MARCOPOLO 2)
1 20762U 90074A   13291.87087636  .00000064  00000-0  10000-3 0    27
2 20762 010.6586 046.9881 0006827 098.9686 261.0724 00.99206570 84642
0 THOR 1 (MARCOPOLO 2)
1 20762U 90074A   13293.88675726  .00000076  00000-0  10000-3 0    37
2 20762 010.6624 046.9641 0006653 102.0994 257.9299 00.99207005 84662
